NORAD_CAT_ID,OBJECT_NAME,OBJECT_TYPE,EPOCH,MEAN_MOTION,ECCENTRICITY,INCLINATION,RA_OF_ASC_NODE,ARG_OF_PERICENTER,MEAN_ANOMALY,BSTAR,MEAN_MOTION_DOT,MEAN_MOTION_DDOT,TLE_LINE0,TLE_LINE1,TLE_LINE2,SEMIMAJOR_AXIS,PERIOD,APOGEE,PERIGEE,DECAYED
55635.0,STARLINK-5495,PAYLOAD,2023-02-22 16:00:00,15.94552663,0.0040152,70.0,136.7843,168.5154,230.9047,-0.0026584,-0.01092461,0.00036521,0 STARLINK-5495,1 55635U 23021H   23053.66667824 -.01092461  36521-3 -26584-2 0  9992,2 55635  70.0000 136.7843 0040152 168.5154 230.9047 15.94552663  1302,6667.698,90.307,316.335,262.791,0.0
55635.0,STARLINK-5495,PAYLOAD,2023-02-22 22:00:00,15.94001944,0.0036966,69.9995,136.0557,168.9599,224.8759,-0.0026934,-0.01061051,0.0003441,0 STARLINK-5495,1 55635U 23021H   23053.91667824 -.01061051  34410-3 -26934-2 0  9995,2 55635  69.9995 136.0557 0036966 168.9599 224.8759 15.94001944  1305,6669.234,90.339,315.752,266.445,0.0
55635.0,STARLINK-5495,PAYLOAD,2023-02-23 08:00:01,15.93140604,0.0032859,69.9999,134.8421,171.4066,92.0346,-0.0029602,-0.0109724,0.00036288,0 STARLINK-5495,1 55635U 23021H   23054.33334491 -.01097240  36288-3 -29602-2 0  9992,2 55635  69.9999 134.8421 0032859 171.4066  92.0346 15.93140604  1404,6671.637,90.388,315.425,271.58,0.0
55635.0,STARLINK-5495,PAYLOAD,2023-02-23 14:00:01,15.92593858,0.0030631,69.9999,134.115,172.5881,83.994,-0.0029862,-0.01068011,0.00034333,0 STARLINK-5495,1 55635U 23021H   23054.58334491 -.01068011  34333-3 -29862-2 0  9990,2 55635  69.9999 134.1150 0030631 172.5881  83.9940 15.92593858  1309,6673.164,90.419,315.47,274.589,0.0
55635.0,STARLINK-5495,PAYLOAD,2023-02-23 16:00:00,15.92437628,0.0029801,69.9999,133.8733,173.1874,200.991,-0.0031213,-0.01104167,0.00036453,0 STARLINK-5495,1 55635U 23021H   23054.66667824 -.01104167  36453-3 -31213-2 0  9999,2 55635  69.9999 133.8733 0029801 173.1874 200.9910 15.92437628  1454,6673.601,90.427,315.354,275.578,0.0
55635.0,STARLINK-5495,PAYLOAD,2023-02-23 22:00:00,15.91907922,0.0026796,69.9996,133.1468,174.9315,191.7459,-0.0032461,-0.01107743,0.00036477,0 STARLINK-5495,1 55635U 23021H   23054.91667824 -.01107743  36477-3 -32461-2 0  9992,2 55635  69.9996 133.1468 0026796 174.9315 191.7459 15.91907922  1305,6675.081,90.457,314.833,279.06,0.0
55635.0,STARLINK-5495,PAYLOAD,2023-02-24 02:00:01,15.91540157,0.0025721,70.0,132.6627,175.7747,65.6414,-0.0032235,-0.01076516,0.00034474,0 STARLINK-5495,1 55635U 23021H   23055.08334491 -.01076516  34474-3 -32235-2 0  9999,2 55635  70.0000 132.6627 0025721 175.7747  65.6414 15.91540157  1527,6676.109,90.478,315.146,280.803,0.0
55635.0,STARLINK-5495,PAYLOAD,2023-02-24 08:00:01,15.91014384,0.0023095,70.0,131.9374,177.8358,55.2818,-0.003355,-0.01083782,0.00034724,0 STARLINK-5495,1 55635U 23021H   23055.33334491 -.01083782  34724-3 -33550-2 0  9999,2 55635  70.0000 131.9374 0023095 177.8358  55.2818 15.91014384  1566,6677.58,90.508,314.867,284.023,0.0
55635.0,STARLINK-5495,PAYLOAD,2023-02-24 14:00:01,15.90488888,0.002084,69.9999,131.2126,179.9918,44.3504,-0.003484,-0.01090451,0.00034939,0 STARLINK-5495,1 55635U 23021H   23055.58334491 -.01090451  34939-3 -34840-2 0  9998,2 55635  69.9999 131.2126 0020840 179.9918  44.3504 15.90488888  1304,6679.051,90.538,314.835,286.997,0.0
55635.0,STARLINK-5495,PAYLOAD,2023-02-24 18:00:00,15.90126727,0.0019418,69.9997,130.73,182.207,276.0257,-0.0035093,-0.01075578,0.00033942,0 STARLINK-5495,1 55635U 23021H   23055.75001157 -.01075578  33942-3 -35093-2 0  9994,2 55635  69.9997 130.7300 0019418 182.2070 276.0257 15.90126727  1631,6680.065,90.559,314.901,288.959,0.0
55635.0,STARLINK-5495,PAYLOAD,2023-02-24 22:00:00,15.89815747,0.0017458,69.9997,130.2469,184.858,147.0325,-0.0038466,-0.01156027,0.00038664,0 STARLINK-5495,1 55635U 23021H   23055.91667824 -.01156027  38664-3 -38466-2 0  9993,2 55635  69.9997 130.2469 0017458 184.8580 147.0325 15.89815747  1300,6680.936,90.577,314.465,291.137,0.0
55635.0,STARLINK-5495,PAYLOAD,2023-02-25 02:00:01,15.89414247,0.001628,70.0002,129.7647,187.3127,18.0593,-0.0036166,-0.01063926,0.00033036,0 STARLINK-5495,1 55635U 23021H   23056.08334491 -.01063926  33036-3 -36166-2 0  9991,2 55635  70.0002 129.7647 0016280 187.3127  18.0593 15.89414247  1683,6682.061,90.599,314.804,293.048,0.0
55635.0,STARLINK-5495,PAYLOAD,2023-02-25 08:00:01,15.88884324,0.0014128,70.0,129.0415,192.8147,2.3545,-0.003728,-0.01064826,0.00032919,0 STARLINK-5495,1 55635U 23021H   23056.33334491 -.01064826  32919-3 -37280-2 0  9996,2 55635  70.0000 129.0415 0014128 192.8147   2.3545 15.88884324  1723,6683.547,90.63,314.854,295.969,0.0
55635.0,STARLINK-5495,PAYLOAD,2023-02-25 14:00:01,15.88363155,0.0012416,69.9997,128.3192,199.7956,344.6887,-0.0038809,-0.01077836,0.00033498,0 STARLINK-5495,1 55635U 23021H   23056.58334491 -.01077836  33498-3 -38809-2 0  9999,2 55635  69.9997 128.3192 0012416 199.7956 344.6887 15.88363155  1760,6685.009,90.659,315.174,298.574,0.0
55635.0,STARLINK-5495,PAYLOAD,2023-02-25 22:00:00,15.87678462,0.0010411,69.9996,127.3561,211.9149,77.5815,-0.0042028,-0.01125759,0.00036068,0 STARLINK-5495,1 55635U 23021H   23056.91667824 -.01125759  36068-3 -42028-2 0  9997,2 55635  69.9996 127.3561 0010411 211.9149  77.5815 15.87678462  1810,6686.93,90.698,315.757,301.834,0.0
55635.0,STARLINK-5495,PAYLOAD,2023-02-26 06:00:00,15.869918,0.0009341,69.9993,126.3948,231.124,162.5334,-0.0044765,-0.0103828,0.0,0 STARLINK-5495,1 55635U 23021H   23057.25001157 -.01038280  00000-0 -44765-2 0  9992,2 55635  69.9993 126.3948 0009341 231.1240 162.5334 15.86991800  1860,6688.859,90.738,316.972,304.476,0.0
55635.0,STARLINK-5495,PAYLOAD,2023-02-26 14:00:01,15.86232379,0.0009044,69.9999,125.4346,248.5699,248.433,-0.004255,-0.00958887,0.0,0 STARLINK-5495,1 55635U 23021H   23057.58334491 -.00958887  00000-0 -42550-2 0  9991,2 55635  69.9999 125.4346 0009044 248.5699 248.4330 15.86232379  1306,6690.994,90.781,318.91,306.808,0.0
55635.0,STARLINK-5495,PAYLOAD,2023-02-26 22:00:00,15.85537091,0.0009212,69.9995,124.4747,264.8558,334.6195,-0.0044958,-0.00977432,0.0,0 STARLINK-5495,1 55635U 23021H   23057.91667824 -.00977432  00000-0 -44958-2 0  9998,2 55635  69.9995 124.4747 0009212 264.8558 334.6195 15.85537091  1976,6692.95,90.821,320.98,308.649,0.0
55635.0,STARLINK-5495,PAYLOAD,2023-02-27 14:00:01,15.84141068,0.0005808,70.0,122.5589,264.0752,177.8025,-0.0049598,-0.01001718,0.0,0 STARLINK-5495,1 55635U 23021H   23058.58334491 -.01001718  00000-0 -49598-2 0  9994,2 55635  70.0000 122.5589 0005808 264.0752 177.8025 15.84141068  1304,6696.881,90.901,322.636,314.857,0.0
55635.0,STARLINK-5495,PAYLOAD,2023-02-27 22:00:01,15.83427189,0.0005848,70.0001,121.6022,262.8662,279.0142,-0.0050706,-0.00991022,0.0,0 STARLINK-5495,1 55635U 23021H   23058.91668981 -.00991022  00000-0 -50706-2 0  9993,2 55635  70.0001 121.6022 0005848 262.8662 279.0142 15.83427189  2134,6698.894,90.942,324.677,316.842,0.0
55635.0,STARLINK-5495,PAYLOAD,2023-02-28 14:00:01,15.82006395,0.0003688,70.0001,119.6923,264.6545,114.4872,-0.0053446,-0.00976805,0.0,0 STARLINK-5495,1 55635U 23021H   23059.58334491 -.00976805  00000-0 -53446-2 0  9999,2 55635  70.0001 119.6923 0003688 264.6545 114.4872 15.82006395  1302,6702.904,91.024,327.241,322.297,0.0
55635.0,STARLINK-5495,PAYLOAD,2023-02-28 22:00:00,15.81309164,0.0003609,70.0001,118.7382,277.1686,199.3613,-0.005611,-0.00990917,0.0,0 STARLINK-5495,1 55635U 23021H   23059.91667824 -.00990917  00000-0 -56110-2 0  9996,2 55635  70.0001 118.7382 0003609 277.1686 199.3613 15.81309164  1303,6704.874,91.064,329.159,324.32,0.0
55635.0,STARLINK-5495,PAYLOAD,2023-03-01 00:00:00,15.81121164,0.0003568,70.0002,118.5003,273.3775,317.3725,-0.0055567,-0.00974642,0.0,0 STARLINK-5495,1 55635U 23021H   23060.00001157 -.00974642  00000-0 -55567-2 0  9991,2 55635  70.0002 118.5003 0003568 273.3775 317.3725 15.81121164  2302,6705.406,91.075,329.663,324.878,0.0
55635.0,STARLINK-5495,PAYLOAD,2023-03-01 22:00:00,15.79188576,0.0003673,69.9995,115.8832,276.0758,127.5434,-0.0061723,-0.00988875,0.0,0 STARLINK-5495,1 55635U 23021H   23060.91667824 -.00988875  00000-0 -61723-2 0  9994,2 55635  69.9995 115.8832 0003673 276.0758 127.5434 15.79188576  2459,6710.875,91.186,335.205,330.276,0.0
55635.0,STARLINK-5495,PAYLOAD,2023-03-02 20:00:01,15.77236547,0.0003443,70.0,113.2747,266.5479,303.5401,-0.0066548,-0.00977438,0.0,0 STARLINK-5495,1 55635U 23021H   23061.83334491 -.00977438  00000-0 -66548-2 0  9990,2 55635  70.0000 113.2747 0003443 266.5479 303.5401 15.77236547  1308,6716.411,91.299,340.589,335.964,0.0
55635.0,STARLINK-5495,PAYLOAD,2023-03-03 12:00:00,15.75821434,0.0003635,70.0003,111.3819,276.6049,115.9775,-0.007051,-0.00973154,0.0,0 STARLINK-5495,1 55635U 23021H   23062.50001157 -.00973154  00000-0 -70510-2 0  9990,2 55635  70.0003 111.3819 0003635 276.6049 115.9775 15.75821434  2705,6720.432,91.381,344.74,339.854,0.0
55635.0,STARLINK-5495,PAYLOAD,2023-03-03 14:00:01,15.75662311,0.0003506,69.9996,111.1453,270.388,234.7596,-0.0072864,-0.00995779,0.0,0 STARLINK-5495,1 55635U 23021H   23062.58334491 -.00995779  00000-0 -72864-2 0  9999,2 55635  69.9996 111.1453 0003506 270.3880 234.7596 15.75662311  1309,6720.884,91.39,345.106,340.393,0.0
55635.0,STARLINK-5495,PAYLOAD,2023-03-03 22:00:00,15.74937798,0.0003503,70.0,110.2009,264.3433,330.577,-0.0073281,-0.00972844,0.0,0 STARLINK-5495,1 55635U 23021H   23062.91667824 -.00972844  00000-0 -73281-2 0  9997,2 55635  70.0000 110.2009 0003503 264.3433 330.5770 15.74937798  1301,6722.945,91.432,347.165,342.455,0.0
55635.0,STARLINK-5495,PAYLOAD,2023-03-04 10:00:01,15.73874298,0.0003423,70.0003,108.7858,275.0043,273.0399,-0.0076257,-0.00967174,0.0,0 STARLINK-5495,1 55635U 23021H   23063.41668981 -.00967174  00000-0 -76257-2 0  9994,2 55635  70.0003 108.7858 0003423 275.0043 273.0399 15.73874298  2847,6725.973,91.494,350.141,345.536,0.0
